STARLINK-5164           
1 54178U 22141X   26068.10515317 -.00019565  00000+0 -12164-2 0  9993
2 54178  53.2185   6.4240 0001110  61.6652 298.4453 15.08783445185774
LEMUR-2-STELLA          
1 60533U 24149BT  26068.72657350  .00013685  00000+0  85776-3 0  9992
2 60533  97.6764 150.9122 0001299  95.1117 265.0260 15.09464064 85488
